0 COSMOS 449
1 05552U 71086F   13281.71101576  .00000021  00000-0  28087-3 0  9690
2 05552 074.0268 085.1140 0037904 316.0228 117.8926 12.38673585898850
0 COSMOS 449
1 05552U 71086F   13283.81398594 -.00000006  00000-0  72409-4 0  9705
2 05552 074.0271 082.3773 0037926 312.9756 135.4627 12.38673830899117
0 COSMOS 449
1 05552U 71086F   13285.83738244 -.00000034  00000-0 -13909-3 0  9711
2 05552 074.0275 079.7442 0037947 310.0434 158.1990 12.38674196899367
0 COSMOS 449
1 05552U 71086F   13287.84798738 -.00000041  00000-0 -19312-3 0  9721
2 05552 074.0281 077.1278 0037977 307.1118 123.9162 12.38674128899616
0 COSMOS 449
1 05552U 71086F   13290.11900588 -.00000004  00000-0  87629-4 0  9739
2 05552 074.0286 074.1717 0038031 303.8612 170.8141 12.38673723899898
0 COSMOS 449
1 05552U 71086F   13292.44767514  .00000006  00000-0  16226-3 0  9743
2 05552 074.0291 071.1430 0038030 300.4401 114.8707 12.38673852900185
0 COSMOS 449
1 05552U 71086F   13294.55093705  .00000014  00000-0  22107-3 0  9756
2 05552 074.0294 068.4064 0038053 297.4014 133.7350 12.38673783900446
